CCSDS_OMM_VERS = 2.0
CREATION_DATE  = 
ORIGINATOR     = 

OBJECT_NAME    = UNKNOWN
OBJECT_ID      = 
CENTER_NAME    = EARTH
REF_FRAME      = TEME
TIME_SYSTEM    = UTC
MEAN_ELEMENT_THEORY = SGP/SGP4

EPOCH          = 2026-02-12T16:56:58.057728
MEAN_MOTION    = 13.70392492
ECCENTRICITY   = .0419736
INCLINATION    = 66.5953
RA_OF_ASC_NODE = 296.4400
ARG_OF_PERICENTER = 14.8936
MEAN_ANOMALY   = 346.4058

EPHEMERIS_TYPE = 0
CLASSIFICATION_TYPE = U
NORAD_CAT_ID   = 87320
ELEMENT_SET_NO = 999
REV_AT_EPOCH   = 60223
BSTAR          = .13391E-2
MEAN_MOTION_DOT = .2139E-4
MEAN_MOTION_DDOT = 0

CCSDS_OMM_VERS = 2.0
CREATION_DATE  = 
ORIGINATOR     = 

OBJECT_NAME    = UNKNOWN
OBJECT_ID      = 
CENTER_NAME    = EARTH
REF_FRAME      = TEME
TIME_SYSTEM    = UTC
MEAN_ELEMENT_THEORY = SGP/SGP4

EPOCH          = 2026-02-13T14:13:40.276992
MEAN_MOTION    = 14.09578273
ECCENTRICITY   = .0066613
INCLINATION    = 90.0062
RA_OF_ASC_NODE = 271.6859
ARG_OF_PERICENTER = 36.4313
MEAN_ANOMALY   = 324.1377

EPHEMERIS_TYPE = 0
CLASSIFICATION_TYPE = U
NORAD_CAT_ID   = 87334
ELEMENT_SET_NO = 999
REV_AT_EPOCH   = 39549
BSTAR          = .9357E-2
MEAN_MOTION_DOT = .16748E-3
MEAN_MOTION_DDOT = 0

CCSDS_OMM_VERS = 2.0
CREATION_DATE  = 
ORIGINATOR     = 

OBJECT_NAME    = UNKNOWN
OBJECT_ID      = 
CENTER_NAME    = EARTH
REF_FRAME      = TEME
TIME_SYSTEM    = UTC
MEAN_ELEMENT_THEORY = SGP/SGP4

EPOCH          = 2026-02-12T14:20:45.852288
MEAN_MOTION    = 14.09685214
ECCENTRICITY   = .0085833
INCLINATION    = 89.9949
RA_OF_ASC_NODE = 267.8954
ARG_OF_PERICENTER = 20.5749
MEAN_ANOMALY   = 339.8857

EPHEMERIS_TYPE = 0
CLASSIFICATION_TYPE = U
NORAD_CAT_ID   = 87335
ELEMENT_SET_NO = 999
REV_AT_EPOCH   = 39568
BSTAR          = .82857E-2
MEAN_MOTION_DOT = .15061E-3
MEAN_MOTION_DDOT = 0

CCSDS_OMM_VERS = 2.0
CREATION_DATE  = 
ORIGINATOR     = 

OBJECT_NAME    = UNKNOWN
OBJECT_ID      = 
CENTER_NAME    = EARTH
REF_FRAME      = TEME
TIME_SYSTEM    = UTC
MEAN_ELEMENT_THEORY = SGP/SGP4

EPOCH          = 2026-02-13T08:01:12.102240
MEAN_MOTION    = 13.96666731
ECCENTRICITY   = .0058431
INCLINATION    = 82.7515
RA_OF_ASC_NODE = 10.7216
ARG_OF_PERICENTER = 147.4456
MEAN_ANOMALY   = 213.0337

EPHEMERIS_TYPE = 0
CLASSIFICATION_TYPE = U
NORAD_CAT_ID   = 87405
ELEMENT_SET_NO = 999
REV_AT_EPOCH   = 61989
BSTAR          = .1696E-2
MEAN_MOTION_DOT = .24E-4
MEAN_MOTION_DDOT = 0

CCSDS_OMM_VERS = 2.0
CREATION_DATE  = 
ORIGINATOR     = 

OBJECT_NAME    = UNKNOWN
OBJECT_ID      = 
CENTER_NAME    = EARTH
REF_FRAME      = TEME
TIME_SYSTEM    = UTC
MEAN_ELEMENT_THEORY = SGP/SGP4

EPOCH          = 2026-02-10T08:28:41.752992
MEAN_MOTION    = 14.30377243
ECCENTRICITY   = .0068797
INCLINATION    = 65.7828
RA_OF_ASC_NODE = 172.8343
ARG_OF_PERICENTER = 266.4074
MEAN_ANOMALY   = 123.1796

EPHEMERIS_TYPE = 0
CLASSIFICATION_TYPE = U
NORAD_CAT_ID   = 87426
ELEMENT_SET_NO = 999
REV_AT_EPOCH   = 63111
BSTAR          = .20199E-2
MEAN_MOTION_DOT = .5307E-4
MEAN_MOTION_DDOT = 0

CCSDS_OMM_VERS = 2.0
CREATION_DATE  = 
ORIGINATOR     = 

OBJECT_NAME    = UNKNOWN
OBJECT_ID      = 
CENTER_NAME    = EARTH
REF_FRAME      = TEME
TIME_SYSTEM    = UTC
MEAN_ELEMENT_THEORY = SGP/SGP4

EPOCH          = 2026-02-13T00:42:57.057984
MEAN_MOTION    = 13.90812804
ECCENTRICITY   = .0063649
INCLINATION    = 100.4520
RA_OF_ASC_NODE = 263.2474
ARG_OF_PERICENTER = 41.9455
MEAN_ANOMALY   = 318.6550

EPHEMERIS_TYPE = 0
CLASSIFICATION_TYPE = U
NORAD_CAT_ID   = 87448
ELEMENT_SET_NO = 999
REV_AT_EPOCH   = 61789
BSTAR          = .11329E-2
MEAN_MOTION_DOT = .1386E-4
MEAN_MOTION_DDOT = 0

CCSDS_OMM_VERS = 2.0
CREATION_DATE  = 
ORIGINATOR     = 

OBJECT_NAME    = UNKNOWN
OBJECT_ID      = 
CENTER_NAME    = EARTH
REF_FRAME      = TEME
TIME_SYSTEM    = UTC
MEAN_ELEMENT_THEORY = SGP/SGP4

EPOCH          = 2026-02-06T02:28:17.965344
MEAN_MOTION    = 14.14815170
ECCENTRICITY   = .0509685
INCLINATION    = 65.7762
RA_OF_ASC_NODE = 303.9076
ARG_OF_PERICENTER = 336.5491
MEAN_ANOMALY   = 21.3061

EPHEMERIS_TYPE = 0
CLASSIFICATION_TYPE = U
NORAD_CAT_ID   = 87456
ELEMENT_SET_NO = 999
REV_AT_EPOCH   = 61932
BSTAR          = .20425E-2
MEAN_MOTION_DOT = .14232E-3
MEAN_MOTION_DDOT = 0

CCSDS_OMM_VERS = 2.0
CREATION_DATE  = 
ORIGINATOR     = 

OBJECT_NAME    = UNKNOWN
OBJECT_ID      = 
CENTER_NAME    = EARTH
REF_FRAME      = TEME
TIME_SYSTEM    = UTC
MEAN_ELEMENT_THEORY = SGP/SGP4

EPOCH          = 2026-02-12T14:12:24.257952
MEAN_MOTION    = 13.61840426
ECCENTRICITY   = .0675202
INCLINATION    = 65.8215
RA_OF_ASC_NODE = 82.0543
ARG_OF_PERICENTER = 276.9785
MEAN_ANOMALY   = 160.5715

EPHEMERIS_TYPE = 0
CLASSIFICATION_TYPE = U
NORAD_CAT_ID   = 87517
ELEMENT_SET_NO = 999
REV_AT_EPOCH   = 60133
BSTAR          = .15781E-2
MEAN_MOTION_DOT = .5788E-4
MEAN_MOTION_DDOT = 0

CCSDS_OMM_VERS = 2.0
CREATION_DATE  = 
ORIGINATOR     = 

OBJECT_NAME    = UNKNOWN
OBJECT_ID      = 
CENTER_NAME    = EARTH
REF_FRAME      = TEME
TIME_SYSTEM    = UTC
MEAN_ELEMENT_THEORY = SGP/SGP4

EPOCH          = 2026-02-12T19:51:18.356256
MEAN_MOTION    = 13.35607109
ECCENTRICITY   = .006
INCLINATION    = 99.6992
RA_OF_ASC_NODE = 259.6230
ARG_OF_PERICENTER = 111.6337
MEAN_ANOMALY   = 311.9721

EPHEMERIS_TYPE = 0
CLASSIFICATION_TYPE = U
NORAD_CAT_ID   = 87541
ELEMENT_SET_NO = 999
REV_AT_EPOCH   = 59032
BSTAR          = .1729E-3
MEAN_MOTION_DOT = .48E-6
MEAN_MOTION_DDOT = 0

CCSDS_OMM_VERS = 2.0
CREATION_DATE  = 
ORIGINATOR     = 

OBJECT_NAME    = UNKNOWN
OBJECT_ID      = 
CENTER_NAME    = EARTH
REF_FRAME      = TEME
TIME_SYSTEM    = UTC
MEAN_ELEMENT_THEORY = SGP/SGP4

EPOCH          = 2026-02-12T21:15:09.073152
MEAN_MOTION    = 13.53882924
ECCENTRICITY   = .069405
INCLINATION    = 65.6684
RA_OF_ASC_NODE = 205.4292
ARG_OF_PERICENTER = 199.9152
MEAN_ANOMALY   = 157.3544

EPHEMERIS_TYPE = 0
CLASSIFICATION_TYPE = U
NORAD_CAT_ID   = 87553
ELEMENT_SET_NO = 999
REV_AT_EPOCH   = 59966
BSTAR          = .16172E-2
MEAN_MOTION_DOT = .5254E-4
MEAN_MOTION_DDOT = 0

CCSDS_OMM_VERS = 2.0
CREATION_DATE  = 
ORIGINATOR     = 

OBJECT_NAME    = UNKNOWN
OBJECT_ID      = 
CENTER_NAME    = EARTH
REF_FRAME      = TEME
TIME_SYSTEM    = UTC
MEAN_ELEMENT_THEORY = SGP/SGP4

EPOCH          = 2026-02-09T10:33:26.165952
MEAN_MOTION    = 13.28345538
ECCENTRICITY   = .0071906
INCLINATION    = 101.7563
RA_OF_ASC_NODE = 268.6226
ARG_OF_PERICENTER = 260.7539
MEAN_ANOMALY   = 98.5438

EPHEMERIS_TYPE = 0
CLASSIFICATION_TYPE = U
NORAD_CAT_ID   = 87557
ELEMENT_SET_NO = 999
REV_AT_EPOCH   = 57282
BSTAR          = .82704E-2
MEAN_MOTION_DOT = .3769E-4
MEAN_MOTION_DDOT = 0

CCSDS_OMM_VERS = 2.0
CREATION_DATE  = 
ORIGINATOR     = 

OBJECT_NAME    = UNKNOWN
OBJECT_ID      = 
CENTER_NAME    = EARTH
REF_FRAME      = TEME
TIME_SYSTEM    = UTC
MEAN_ELEMENT_THEORY = SGP/SGP4

EPOCH          = 2026-02-07T03:14:42.556992
MEAN_MOTION    = 12.32164700
ECCENTRICITY   = .0176015
INCLINATION    = 102.0028
RA_OF_ASC_NODE = 99.0990
ARG_OF_PERICENTER = 189.8625
MEAN_ANOMALY   = 202.9146

EPHEMERIS_TYPE = 0
CLASSIFICATION_TYPE = U
NORAD_CAT_ID   = 87561
ELEMENT_SET_NO = 999
REV_AT_EPOCH   = 54938
BSTAR          = .40033E-3
MEAN_MOTION_DOT = .7E-7
MEAN_MOTION_DDOT = 0

