UNKNOWN                 
1 87320U          26043.70622752  .00002139  00000+0  13391-2 0  9999
2 87320  66.5953 296.4400 0419736  14.8936 346.4058 13.70392492602235
UNKNOWN                 
1 87334U          26044.59282728  .00016748  00000+0  93570-2 0  9995
2 87334  90.0062 271.6859 0066613  36.4313 324.1377 14.09578273395497
UNKNOWN                 
1 87335U          26043.59775292  .00015061  00000+0  82857-2 0  9991
2 87335  89.9949 267.8954 0085833  20.5749 339.8857 14.09685214395685
UNKNOWN                 
1 87405U          26044.33416785  .00002400  00000+0  16960-2 0  9996
2 87405  82.7515  10.7216 0058431 147.4456 213.0337 13.96666731619893
UNKNOWN                 
1 87426U          26041.35326103  .00005307  00000+0  20199-2 0  9990
2 87426  65.7828 172.8343 0068797 266.4074 123.1796 14.30377243631114
UNKNOWN                 
1 87448U          26044.02982706  .00001386  00000+0  11329-2 0  9996
2 87448 100.4520 263.2474 0063649  41.9455 318.6550 13.90812804617894
UNKNOWN                 
1 87456U          26037.10298571  .00014232  00000+0  20425-2 0  9997
2 87456  65.7762 303.9076 0509685 336.5491  21.3061 14.14815170619323
UNKNOWN                 
1 87517U          26043.59194743  .00005788  00000+0  15781-2 0  9996
2 87517  65.8215  82.0543 0675202 276.9785 160.5715 13.61840426601338
UNKNOWN                 
1 87541U          26043.82729579  .00000048  00000+0  17290-3 0  9992
2 87541  99.6992 259.6230 0060000 111.6337 311.9721 13.35607109590324
UNKNOWN                 
1 87553U          26043.88552168  .00005254  00000+0  16172-2 0  9990
2 87553  65.6684 205.4292 0694050 199.9152 157.3544 13.53882924599668
UNKNOWN                 
1 87557U          26040.43988618  .00003769  00000+0  82704-2 0  9998
2 87557 101.7563 268.6226 0071906 260.7539  98.5438 13.28345538572827
UNKNOWN                 
1 87561U          26038.13521478  .00000007  00000+0  40033-3 0  9996
2 87561 102.0028  99.0990 0176015 189.8625 202.9146 12.32164700549386
